[{"OBJECT_NAME":"MEASAT-3","OBJECT_ID":"2006-056A","EPOCH":"2026-04-04T21:55:28.466688","MEAN_MOTION":0.99748513,"ECCENTRICITY":0.00048702,"INCLINATION":4.541,"RA_OF_ASC_NODE":77.0459,"ARG_OF_PERICENTER":241.2802,"MEAN_ANOMALY":326.2163,"EPHEMERIS_TYPE":0,"CLASSIFICATION_TYPE":"U","NORAD_CAT_ID":29648,"ELEMENT_SET_NO":999,"REV_AT_EPOCH":4965,"BSTAR":0,"MEAN_MOTION_DOT":-3.31e-6,"MEAN_MOTION_DDOT":0},{"OBJECT_NAME":"TITAN 3C TRANSTAGE DEB","OBJECT_ID":"1968-081J","EPOCH":"2026-04-04T12:27:22.536576","MEAN_MOTION":1.00911768,"ECCENTRICITY":0.0130135,"INCLINATION":1.776,"RA_OF_ASC_NODE":40.6811,"ARG_OF_PERICENTER":320.5311,"MEAN_ANOMALY":309.9413,"EPHEMERIS_TYPE":0,"CLASSIFICATION_TYPE":"U","NORAD_CAT_ID":30000,"ELEMENT_SET_NO":999,"REV_AT_EPOCH":7849,"BSTAR":0,"MEAN_MOTION_DOT":-3.5e-6,"MEAN_MOTION_DDOT":0},{"OBJECT_NAME":"BEIDOU-1 G4","OBJECT_ID":"2007-003A","EPOCH":"2026-04-04T12:13:16.390272","MEAN_MOTION":0.99153682,"ECCENTRICITY":0.0056316,"INCLINATION":9.7216,"RA_OF_ASC_NODE":57.7236,"ARG_OF_PERICENTER":272.6029,"MEAN_ANOMALY":287.8706,"EPHEMERIS_TYPE":0,"CLASSIFICATION_TYPE":"U","NORAD_CAT_ID":30323,"ELEMENT_SET_NO":999,"REV_AT_EPOCH":6997,"BSTAR":0,"MEAN_MOTION_DOT":6.7e-7,"MEAN_MOTION_DDOT":0},{"OBJECT_NAME":"THEMIS A","OBJECT_ID":"2007-004A","EPOCH":"2026-04-04T17:18:10.968192","MEAN_MOTION":0.87845382,"ECCENTRICITY":0.83908094,"INCLINATION":7.2703,"RA_OF_ASC_NODE":116.4625,"ARG_OF_PERICENTER":184.5488,"MEAN_ANOMALY":152.5105,"EPHEMERIS_TYPE":0,"CLASSIFICATION_TYPE":"U","NORAD_CAT_ID":30580,"ELEMENT_SET_NO":999,"REV_AT_EPOCH":4063,"BSTAR":-0.00473111,"MEAN_MOTION_DOT":-7.2e-7,"MEAN_MOTION_DDOT":0},{"OBJECT_NAME":"SKYNET 5A","OBJECT_ID":"2007-007B","EPOCH":"2026-04-04T21:51:56.488608","MEAN_MOTION":1.00271173,"ECCENTRICITY":0.00039819,"INCLINATION":5.1153,"RA_OF_ASC_NODE":74.614,"ARG_OF_PERICENTER":310.909,"MEAN_ANOMALY":230.9033,"EPHEMERIS_TYPE":0,"CLASSIFICATION_TYPE":"U","NORAD_CAT_ID":30794,"ELEMENT_SET_NO":999,"REV_AT_EPOCH":6996,"BSTAR":0,"MEAN_MOTION_DOT":-2.69e-6,"MEAN_MOTION_DDOT":0},{"OBJECT_NAME":"THEMIS D","OBJECT_ID":"2007-004D","EPOCH":"2026-04-04T13:57:31.989600","MEAN_MOTION":0.87834718,"ECCENTRICITY":0.8345773,"INCLINATION":6.9778,"RA_OF_ASC_NODE":83.3943,"ARG_OF_PERICENTER":220.3087,"MEAN_ANOMALY":94.4593,"EPHEMERIS_TYPE":0,"CLASSIFICATION_TYPE":"U","NORAD_CAT_ID":30797,"ELEMENT_SET_NO":999,"REV_AT_EPOCH":4043,"BSTAR":0,"MEAN_MOTION_DOT":-1.18e-6,"MEAN_MOTION_DDOT":0},{"OBJECT_NAME":"THEMIS E","OBJECT_ID":"2007-004E","EPOCH":"2026-04-04T21:13:40.792224","MEAN_MOTION":0.88160085,"ECCENTRICITY":0.83937757,"INCLINATION":4.9378,"RA_OF_ASC_NODE":100.2041,"ARG_OF_PERICENTER":204.6251,"MEAN_ANOMALY":220.8756,"EPHEMERIS_TYPE":0,"CLASSIFICATION_TYPE":"U","NORAD_CAT_ID":30798,"ELEMENT_SET_NO":999,"REV_AT_EPOCH":6527,"BSTAR":0,"MEAN_MOTION_DOT":-1.11e-6,"MEAN_MOTION_DDOT":0},{"OBJECT_NAME":"ANIK F3","OBJECT_ID":"2007-009A","EPOCH":"2026-04-04T15:38:42.280800","MEAN_MOTION":1.00271535,"ECCENTRICITY":0.00028572,"INCLINATION":1.0074,"RA_OF_ASC_NODE":84.6925,"ARG_OF_PERICENTER":286.737,"MEAN_ANOMALY":297.4994,"EPHEMERIS_TYPE":0,"CLASSIFICATION_TYPE":"U","NORAD_CAT_ID":31102,"ELEMENT_SET_NO":999,"REV_AT_EPOCH":4582,"BSTAR":0,"MEAN_MOTION_DOT":0,"MEAN_MOTION_DDOT":0},{"OBJECT_NAME":"BREEZE-M R/B","OBJECT_ID":"2007-009C","EPOCH":"2026-04-04T03:49:38.799840","MEAN_MOTION":1.96449254,"ECCENTRICITY":0.56584909,"INCLINATION":12.0536,"RA_OF_ASC_NODE":288.7471,"ARG_OF_PERICENTER":87.1844,"MEAN_ANOMALY":317.3568,"EPHEMERIS_TYPE":0,"CLASSIFICATION_TYPE":"U","NORAD_CAT_ID":31104,"ELEMENT_SET_NO":999,"REV_AT_EPOCH":13626,"BSTAR":0,"MEAN_MOTION_DOT":-1.59e-6,"MEAN_MOTION_DDOT":0},{"OBJECT_NAME":"SATCOM 3 DEB","OBJECT_ID":"1979-101H","EPOCH":"2026-04-04T08:54:10.562976","MEAN_MOTION":1.83048419,"ECCENTRICITY":0.4877644,"INCLINATION":9.0845,"RA_OF_ASC_NODE":57.452,"ARG_OF_PERICENTER":158.5486,"MEAN_ANOMALY":326.4207,"EPHEMERIS_TYPE":0,"CLASSIFICATION_TYPE":"U","NORAD_CAT_ID":31138,"ELEMENT_SET_NO":999,"REV_AT_EPOCH":12929,"BSTAR":0,"MEAN_MOTION_DOT":-1.53e-6,"MEAN_MOTION_DDOT":0},{"OBJECT_NAME":"ASTRA 1L","OBJECT_ID":"2007-016A","EPOCH":"2026-04-04T21:13:33.303936","MEAN_MOTION":1.00272703,"ECCENTRICITY":0.00044039,"INCLINATION":1.1324,"RA_OF_ASC_NODE":82.0861,"ARG_OF_PERICENTER":311.3602,"MEAN_ANOMALY":93.6126,"EPHEMERIS_TYPE":0,"CLASSIFICATION_TYPE":"U","NORAD_CAT_ID":31306,"ELEMENT_SET_NO":999,"REV_AT_EPOCH":4425,"BSTAR":0,"MEAN_MOTION_DOT":-1.83e-6,"MEAN_MOTION_DDOT":0},{"OBJECT_NAME":"GALAXY 17 (G-17)","OBJECT_ID":"2007-016B","EPOCH":"2026-04-04T20:56:21.780384","MEAN_MOTION":1.00271641,"ECCENTRICITY":0.00040748,"INCLINATION":2.7868,"RA_OF_ASC_NODE":80.8028,"ARG_OF_PERICENTER":308.118,"MEAN_ANOMALY":33.3463,"EPHEMERIS_TYPE":0,"CLASSIFICATION_TYPE":"U","NORAD_CAT_ID":31307,"ELEMENT_SET_NO":999,"REV_AT_EPOCH":6906,"BSTAR":0,"MEAN_MOTION_DOT":-2.04e-6,"MEAN_MOTION_DDOT":0},{"OBJECT_NAME":"NIGCOMSAT 1","OBJECT_ID":"2007-018A","EPOCH":"2026-04-04T22:07:51.403008","MEAN_MOTION":1.00222679,"ECCENTRICITY":0.00023144,"INCLINATION":11.7479,"RA_OF_ASC_NODE":33.4421,"ARG_OF_PERICENTER":103.7853,"MEAN_ANOMALY":126.9139,"EPHEMERIS_TYPE":0,"CLASSIFICATION_TYPE":"U","NORAD_CAT_ID":31395,"ELEMENT_SET_NO":999,"REV_AT_EPOCH":6932,"BSTAR":0,"MEAN_MOTION_DOT":-2.97e-6,"MEAN_MOTION_DDOT":0},{"OBJECT_NAME":"ARIANE 5 DEB [SYLDA]","OBJECT_ID":"2007-044D","EPOCH":"2026-04-04T21:08:18.807072","MEAN_MOTION":2.2683249,"ECCENTRICITY":0.71601334,"INCLINATION":4.3171,"RA_OF_ASC_NODE":84.1234,"ARG_OF_PERICENTER":274.9665,"MEAN_ANOMALY":12.2754,"EPHEMERIS_TYPE":0,"CLASSIFICATION_TYPE":"U","NORAD_CAT_ID":32255,"ELEMENT_SET_NO":999,"REV_AT_EPOCH":15283,"BSTAR":0.0024927345,"MEAN_MOTION_DOT":5.2e-7,"MEAN_MOTION_DDOT":0},{"OBJECT_NAME":"WGS F1 (USA 195)","OBJECT_ID":"2007-046A","EPOCH":"2026-04-04T19:25:47.983296","MEAN_MOTION":1.00271142,"ECCENTRICITY":4.513e-5,"INCLINATION":0.0765,"RA_OF_ASC_NODE":82.981,"ARG_OF_PERICENTER":304.881,"MEAN_ANOMALY":54.2062,"EPHEMERIS_TYPE":0,"CLASSIFICATION_TYPE":"U","NORAD_CAT_ID":32258,"ELEMENT_SET_NO":999,"REV_AT_EPOCH":5159,"BSTAR":0,"MEAN_MOTION_DOT":-2.67e-6,"MEAN_MOTION_DDOT":0},{"OBJECT_NAME":"SKYNET 5B","OBJECT_ID":"2007-056B","EPOCH":"2026-04-04T18:21:08.634528","MEAN_MOTION":1.00272826,"ECCENTRICITY":0.00039263,"INCLINATION":5.0662,"RA_OF_ASC_NODE":74.3609,"ARG_OF_PERICENTER":297.693,"MEAN_ANOMALY":121.3862,"EPHEMERIS_TYPE":0,"CLASSIFICATION_TYPE":"U","NORAD_CAT_ID":32294,"ELEMENT_SET_NO":999,"REV_AT_EPOCH":6746,"BSTAR":0,"MEAN_MOTION_DOT":1.42e-6,"MEAN_MOTION_DDOT":0},{"OBJECT_NAME":"ASTRA 4A","OBJECT_ID":"2007-057A","EPOCH":"2026-04-04T21:21:55.001088","MEAN_MOTION":1.00271005,"ECCENTRICITY":0.00026711,"INCLINATION":0.0512,"RA_OF_ASC_NODE":57.7868,"ARG_OF_PERICENTER":326.7473,"MEAN_ANOMALY":133.9469,"EPHEMERIS_TYPE":0,"CLASSIFICATION_TYPE":"U","NORAD_CAT_ID":32299,"ELEMENT_SET_NO":999,"REV_AT_EPOCH":5091,"BSTAR":0,"MEAN_MOTION_DOT":3.3e-7,"MEAN_MOTION_DDOT":0}]
