MEASAT-3                
1 29648U 06056A   26094.91352392 -.00000331  00000+0  00000+0 0  9997
2 29648   4.5410  77.0459 0004870 241.2802 326.2163  0.99748513 49658
TITAN 3C TRANSTAGE DEB  
1 30000U 68081J   26094.51901084 -.00000350  00000+0  00000+0 0  9992
2 30000   1.7760  40.6811 0130135 320.5311 309.9413  1.00911768 78494
BEIDOU-1 G4             
1 30323U 07003A   26094.50921748  .00000067  00000+0  00000+0 0  9999
2 30323   9.7216  57.7236 0056316 272.6029 287.8706  0.99153682 69979
THEMIS A                
1 30580U 07004A   26094.72096028 -.00000072  00000+0 -47311-2 0  9990
2 30580   7.2703 116.4625 8390809 184.5488 152.5105  0.87845382 40634
SKYNET 5A               
1 30794U 07007B   26094.91107047 -.00000269  00000+0  00000+0 0  9993
2 30794   5.1153  74.6140 0003981 310.9090 230.9033  1.00271173 69967
THEMIS D                
1 30797U 07004D   26094.58162025 -.00000118  00000+0  00000+0 0  9996
2 30797   6.9778  83.3943 8345773 220.3087  94.4593  0.87834718 40435
THEMIS E                
1 30798U 07004E   26094.88449991 -.00000111  00000+0  00000+0 0  9993
2 30798   4.9378 100.2041 8393775 204.6251 220.8756  0.88160085 65276
ANIK F3                 
1 31102U 07009A   26094.65187825  .00000000  00000+0  00000+0 0  9994
2 31102   1.0074  84.6925 0002857 286.7370 297.4994  1.00271535 45827
BREEZE-M R/B            
1 31104U 07009C   26094.15947685 -.00000159  00000+0  00000+0 0  9995
2 31104  12.0536 288.7471 5658490  87.1844 317.3568  1.96449254136269
SATCOM 3 DEB            
1 31138U 79101H   26094.37095559 -.00000153  00000+0  00000+0 0  9996
2 31138   9.0845  57.4520 4877644 158.5486 326.4207  1.83048419129299
ASTRA 1L                
1 31306U 07016A   26094.88441324 -.00000183  00000+0  00000+0 0  9993
2 31306   1.1324  82.0861 0004403 311.3602  93.6126  1.00272703 44252
GALAXY 17 (G-17)        
1 31307U 07016B   26094.87247431 -.00000204  00000+0  00000+0 0  9990
2 31307   2.7868  80.8028 0004074 308.1180  33.3463  1.00271641 69064
NIGCOMSAT 1             
1 31395U 07018A   26094.92212272 -.00000297  00000+0  00000+0 0  9992
2 31395  11.7479  33.4421 0002314 103.7853 126.9139  1.00222679 69326
ARIANE 5 DEB [SYLDA]    
1 32255U 07044D   26094.88077323  .00000052  00000+0  24927-2 0  9993
2 32255   4.3171  84.1234 7160133 274.9665  12.2754  2.26832490152833
WGS F1 (USA 195)        
1 32258U 07046A   26094.80958314 -.00000267  00000+0  00000+0 0  9990
2 32258   0.0765  82.9810 0000451 304.8810  54.2062  1.00271142 51599
SKYNET 5B               
1 32294U 07056B   26094.76468327  .00000142  00000+0  00000+0 0  9997
2 32294   5.0662  74.3609 0003926 297.6930 121.3862  1.00272826 67460
ASTRA 4A                
1 32299U 07057A   26094.89021992  .00000033  00000+0  00000+0 0  9999
2 32299   0.0512  57.7868 0002671 326.7473 133.9469  1.00271005 50910
